{"type": "FeatureCollection", "features": [{"type": "Feature", "properties": {"tipo": "restriccion_quebrada"}, "geometry": {"type": "Polygon", "coordinates": [[[-70.52074378946132, -33.419004553048026], [-70.52104235671096, -33.41887473518852], [-70.52145040996143, -33.41855433866745], [-70.52216692855518, -33.41867170357763], [-70.52250528978927, -33.41866755043606], [-70.5228088079923, -33.41882151990799], [-70.52329975556557, -33.41894164758772], [-70.52386314143538, -33.418903187604705], [-70.52420315645729, -33.41899362690347], [-70.52450392282681, -33.418989930299624], [-70.52499763014474, -33.41926771292702], [-70.52537579507644, -33.41938921899671], [-70.52549078903436, -33.41951396114525], [-70.52613378327939, -33.41972682457518], [-70.52639750769303, -33.41975511825632], [-70.52673863239795, -33.41990861506848], [-70.52700014917419, -33.41981077816859], [-70.52745075010091, -33.41977369038639], [-70.52797212324946, -33.41948341619377], [-70.52842161675896, -33.419383260338115], [-70.52876053247526, -33.419410622353574], [-70.52928576918431, -33.41934106883725], [-70.52939910970022, -33.419371210348004], [-70.52941127458188, -33.42006492058555], [-70.52862396552442, -33.420200783294334], [-70.52839783546007, -33.42017203109973], [-70.5281363193041, -33.42026987092829], [-70.5279881439725, -33.4203978529921], [-70.52753864471819, -33.42049800742321], [-70.5270908007652, -33.42069275719126], [-70.52641296018776, -33.420638023363914], [-70.52614702593155, -33.420483600486364], [-70.52592144747, -33.42048637610429], [-70.52478583660248, -33.42005879516355], [-70.52455695188114, -33.41987237415375], [-70.52395155615962, -33.4196590405168], [-70.52376302478659, -33.41962981781634], [-70.52327537711905, -33.419698886357466], [-70.52184012140482, -33.41933803616481], [-70.52146691183346, -33.41950031078396], [-70.5213187276537, -33.41962828513302], [-70.52074378946132, -33.419004553048026]]]}}, {"type": "Feature", "properties": {"tipo": "restriccion_quebrada"}, "geometry": {"type": "Polygon", "coordinates": [[[-70.4811373163569, -33.41623530566428], [-70.48117437626665, -33.41620332371165], [-70.48117330538012, -33.41614025770888], [-70.48124956694555, -33.41620242577558], [-70.4813247576211, -33.41620152779396], [-70.48143861470815, -33.416263246730736], [-70.48151380542969, -33.416262348633104], [-70.48155193637116, -33.416293432562654], [-70.48166472248546, -33.41629208529503], [-70.48170285349234, -33.41632316917619], [-70.48177804425652, -33.416322270916986], [-70.48181617531604, -33.416353354761675], [-70.48189136610236, -33.416352456433074], [-70.48192949721455, -33.4163835402413], [-70.48200468802304, -33.416382641843306], [-70.48204281918785, -33.41641372561506], [-70.48211801001848, -33.41641282714767], [-70.48215614123596, -33.41644391088295], [-70.48226892751391, -33.416442563060684], [-70.48230705879676, -33.41647364674758], [-70.48283339483967, -33.4164673553883], [-70.48287045420282, -33.41643537294435], [-70.48294564502392, -33.41643447397483], [-70.48298270433108, -33.4164024914987], [-70.48305789512001, -33.41640159246192], [-70.4830949543712, -33.4163696099536], [-70.48313254975, -33.41636916040728], [-70.48317068129715, -33.41640024382135], [-70.483321062855, -33.41639844547449], [-70.4833226715305, -33.416493044382406], [-70.48328561231482, -33.4165250269573], [-70.48328775717621, -33.416651158833645], [-70.48332588890408, -33.41668224219369], [-70.48332642513593, -33.416713775161654], [-70.48328829339366, -33.41668269180231], [-70.48306272031363, -33.41668538921484], [-70.48302566092059, -33.41671737171598], [-70.48295046985842, -33.41671827074069], [-70.48283875537204, -33.41678268514167], [-70.4826507775537, -33.41678493233867], [-70.482612646012, -33.41675384876611], [-70.48223669044019, -33.4167583421868], [-70.4821985590531, -33.416727258482396], [-70.48208577240352, -33.41672860625078], [-70.48204764108183, -33.41669752249798], [-70.48197245000343, -33.41669842092944], [-70.48193431873439, -33.416667337140176], [-70.48185912767813, -33.41666823550224], [-70.48182099646175, -33.4166371516765], [-70.48174580542766, -33.41663804996917], [-70.48170767426392, -33.41660696610696], [-70.48163248325199, -33.41660786433024], [-70.48159435214087, -33.41657678043155], [-70.4815191611511, -33.41657767858543], [-70.48148103009265, -33.41654659465028], [-70.48136824363998, -33.416547941759916], [-70.48133011264692, -33.41651685777639], [-70.48125492169977, -33.416517755768695], [-70.48121679075936, -33.41648667174868], [-70.4811415998344, -33.4164875696716], [-70.4811410643968, -33.41645603667127], [-70.48117812439577, -33.41642405471608], [-70.48117598260271, -33.41629792271456], [-70.48113785178867, -33.416266838665784], [-70.4811373163569, -33.41623530566428]]]}}, {"type": "Feature", "properties": {"tipo": "restriccion_quebrada"}, "geometry": {"type": "Polygon", "coordinates": [[[-70.49883335495107, -33.408800222689436], [-70.50037624672603, -33.40887618840576], [-70.50532960622554, -33.410487759014806], [-70.5091329858818, -33.41082001545078], [-70.51186205032111, -33.41207989160157], [-70.50894611390952, -33.41088536738732], [-70.50567120344684, -33.4106728487444], [-70.5069286406941, -33.41163529653147], [-70.51262156504957, -33.412512181137735], [-70.51546405963154, -33.41380213188753], [-70.52074937369338, -33.41285434634467], [-70.52509188159429, -33.41390489982728], [-70.52450042545453, -33.412335212653936], [-70.52543859424128, -33.41222906097855], [-70.52671502751689, -33.41426340131511], [-70.52947761123092, -33.41527015758272], [-70.5294527333316, -33.41599586414531], [-70.5205364553221, -33.41358235787493], [-70.51731328060677, -33.414189533972795], [-70.51704269058668, -33.41592749957174], [-70.5182007141004, -33.4176479852426], [-70.51657534210408, -33.417163243344355], [-70.51611049818926, -33.41638044653948], [-70.51653696609584, -33.41495596899054], [-70.51581445724497, -33.41449171280914], [-70.514208861244, -33.415142108541716], [-70.51430211415443, -33.416181763962875], [-70.51362923854849, -33.41641075176158], [-70.51287912457042, -33.41869072660333], [-70.51124402862138, -33.41981453305878], [-70.51209453123872, -33.41898414745116], [-70.51217889109328, -33.41734308004425], [-70.50841993485544, -33.41959659873506], [-70.50702832503887, -33.419581976723265], [-70.50297073430946, -33.417612701341554], [-70.50089863566491, -33.4173854792576], [-70.50299746276588, -33.41698159212295], [-70.50784399648077, -33.41890973903195], [-70.51254117407112, -33.41655018219557], [-70.51422729795904, -33.41403801095699], [-70.51233120537057, -33.41311496712014], [-70.50667583700961, -33.41223761365689], [-70.50401876175782, -33.410787513632414], [-70.50063108406785, -33.410576228831765], [-70.50431895895424, -33.410752334056255], [-70.50682512051335, -33.412172721713496], [-70.51433132140694, -33.41353211350866], [-70.51243469232645, -33.41257753834255], [-70.50689268170024, -33.41173035119373], [-70.50423561881681, -33.41028025536919], [-70.50201115195995, -33.40992873933675], [-70.50010153482285, -33.41039339816335], [-70.50204385853986, -33.409644489531054], [-70.49883335495107, -33.408800222689436]]]}}, {"type": "Feature", "properties": {"tipo": "restriccion_quebrada"}, "geometry": {"type": "Polygon", "coordinates": [[[-70.49886282157578, -33.408326776674215], [-70.49901210468784, -33.408261894121104], [-70.49984183012394, -33.40840956135045], [-70.50029130344036, -33.40830950798569], [-70.50051739536994, -33.40833831261134], [-70.50085897430803, -33.4085234161789], [-70.50146206916612, -33.408610735686935], [-70.5016532839069, -33.40879765694578], [-70.50206842217328, -33.4088872486584], [-70.50260068114926, -33.40922773475626], [-70.50282731919319, -33.40928806780481], [-70.50316401732158, -33.409189370262744], [-70.50387880756101, -33.40921224572709], [-70.5043729395602, -33.40952164699598], [-70.50467476364257, -33.4095810647724], [-70.50494171550282, -33.40979860134837], [-70.50531926930844, -33.40988863801448], [-70.50610870543437, -33.409879055351155], [-70.50656307856848, -33.41006277329375], [-70.5081054505701, -33.4101071093686], [-70.50893575200774, -33.410286247423656], [-70.50912316814455, -33.41025242816123], [-70.5098041946979, -33.410496454878675], [-70.51052663900924, -33.41096074819778], [-70.51188762137004, -33.411385716610795], [-70.51200313201257, -33.411542004844954], [-70.5106045540278, -33.411117495613986], [-70.51007389068496, -33.410871643004924], [-70.50961677834569, -33.41053027517634], [-70.50908721207765, -33.41034748339723], [-70.5087870186514, -33.41038267442535], [-70.5080319011427, -33.41020262137023], [-70.50731655787398, -33.410148237449846], [-70.50649007192024, -33.41018981709496], [-70.50607274618527, -33.409974109806434], [-70.50554591077042, -33.40994896598778], [-70.50532144547611, -33.410014768756454], [-70.50486816278311, -33.40989411156796], [-70.5046012107982, -33.409676574839956], [-70.50429938642573, -33.40961715689324], [-70.50380525412126, -33.409307755343725], [-70.5030152791313, -33.40928579048481], [-70.5027532214143, -33.40935204410498], [-70.5020324588407, -33.40898230206852], [-70.5015797283095, -33.40889316530694], [-70.50138851350432, -33.4087062439389], [-70.50078541804154, -33.40861892409086], [-70.50044383886946, -33.40843382032953], [-70.49965495572653, -33.40847489936102], [-70.49886282157578, -33.408326776674215]]]}}, {"type": "Feature", "properties": {"tipo": "restriccion_quebrada"}, "geometry": {"type": "Polygon", "coordinates": [[[-70.4986201708351, -33.38981609372959], [-70.49693863532761, -33.390404101321856], [-70.49554748809581, -33.390389337372106], [-70.49494344488237, -33.39023891931213], [-70.49381754523655, -33.390347097644025], [-70.49332841399078, -33.39032144596661], [-70.49246613805256, -33.39045797847103], [-70.49183098029715, -33.390686392908265], [-70.49179177984932, -33.390592245847714], [-70.49197808401556, -33.3904953874264], [-70.4927265309993, -33.390297148851246], [-70.49336438001896, -33.390226394753974], [-70.49513028458014, -33.390173589203975], [-70.49595983128943, -33.390321287792254], [-70.49689942957369, -33.39030995602114], [-70.4981702487211, -33.389884605831995], [-70.49824271079395, -33.38972603377143], [-70.4978630877716, -33.38950984105332], [-70.4965165644047, -33.38990456170379], [-70.49565105758963, -33.389851918562066], [-70.495160308998, -33.38973167524493], [-70.49294394743924, -33.38982144126877], [-70.49167040808699, -33.39008907368747], [-70.49170637585378, -33.38999402290459], [-70.49234260687489, -33.389828675162725], [-70.49328004429815, -33.389691239074615], [-70.49519627279288, -33.38963662355472], [-70.49564943718477, -33.389757319778475], [-70.49651494305911, -33.38980996295844], [-70.49703949304127, -33.389709017050336], [-70.49789850757219, -33.38938325576338], [-70.49843225243099, -33.38981836322862], [-70.4986201708351, -33.38981609372959]]]}}, {"type": "Feature", "properties": {"tipo": "restriccion_quebrada"}, "geometry": {"type": "Polygon", "coordinates": [[[-70.50062391929514, -33.379541560460986], [-70.4986065419187, -33.38025980671918], [-70.49775086286651, -33.38077476845757], [-70.49738263288629, -33.38122076472742], [-70.49652315510784, -33.38151498771346], [-70.49611517483436, -33.38183530178675], [-70.49521702639913, -33.38206690311717], [-70.49507048316156, -33.382289445072686], [-70.49454813315455, -33.38251651351826], [-70.49417286648523, -33.382552572017154], [-70.49369132889545, -33.382968382385954], [-70.4931270774605, -33.38294363341903], [-70.4923792326782, -33.383173405868874], [-70.49167435055367, -33.38371805233975], [-70.49129961565049, -33.38378563533694], [-70.4908926818583, -33.38416899899751], [-70.491038700554, -33.38391492863416], [-70.4910317020795, -33.38350499930524], [-70.4908797628488, -33.383412206348744], [-70.49169523588284, -33.382740077019385], [-70.49262720990941, -33.38228731767114], [-70.49427212128913, -33.38176288981785], [-70.49482934947005, -33.381377705025834], [-70.49561529197494, -33.381178998413745], [-70.49624604955044, -33.38069830274532], [-70.49665942726334, -33.380693317951454], [-70.4976240663813, -33.37995627244764], [-70.49743238507737, -33.37973780918043], [-70.4961944261402, -33.37987889866373], [-70.49521250233583, -33.37960687790576], [-70.49611656675414, -33.37972213993119], [-70.4973545236357, -33.37958105127981], [-70.49814801531782, -33.37982379043989], [-70.4973293766835, -33.38030676263649], [-70.49677432804151, -33.38081809005422], [-70.49628687042392, -33.380887047426434], [-70.49573019196606, -33.38130377149786], [-70.49479500728631, -33.38156735559545], [-70.49431293851043, -33.381951635222094], [-70.4938625133506, -33.381988597759154], [-70.49330527694123, -33.38237377839922], [-70.49274210726125, -33.38241209357931], [-70.49181013255831, -33.38286485380231], [-70.49117987288179, -33.383377060895086], [-70.4912212227601, -33.38359734045735], [-70.4915594528964, -33.383593275473466], [-70.492450083795, -33.38292023786115], [-70.49361347096657, -33.3828116221096], [-70.4940950081041, -33.38239581204659], [-70.4949180022861, -33.38216512412827], [-70.49510158629951, -33.38191059660434], [-70.49600027357779, -33.38171052910435], [-70.49651937316699, -33.381294257007205], [-70.4972677307086, -33.38109599323488], [-70.49759892168687, -33.38068198375702], [-70.49860383689709, -33.38010214204828], [-70.50017296854884, -33.379547012587686], [-70.50062391929514, -33.379541560460986]]]}}]}