{"type": "FeatureCollection", "features": [{"type": "Feature", "properties": {"cuadra_id": 10}, "geometry": {"type": "Polygon", "coordinates": [[[-70.54625228818946, -33.381050108568346], [-70.54692540225783, -33.382045016420626], [-70.54684028152971, -33.38210878354279], [-70.5470064567777, -33.38240094808481], [-70.5463837696105, -33.38263059224409], [-70.5463685725153, -33.38274654663587], [-70.54594993559513, -33.38280964528183], [-70.5459118916018, -33.381309997341575], [-70.54603546048715, -33.38114445743408], [-70.54625228818946, -33.381050108568346]]]}}, {"type": "Feature", "properties": {"cuadra_id": 11}, "geometry": {"type": "Polygon", "coordinates": [[[-70.54769896424874, -33.3812443100507], [-70.54818909789039, -33.381971374445754], [-70.54783000468295, -33.38214950147133], [-70.54758146525651, -33.38175224734118], [-70.54750115413363, -33.38176289596613], [-70.54776161801608, -33.38218411924004], [-70.54729947260053, -33.382387647752054], [-70.54681517786098, -33.381665330564125], [-70.54769896424874, -33.3812443100507]]]}}, {"type": "Feature", "properties": {"cuadra_id": 13}, "geometry": {"type": "Polygon", "coordinates": [[[-70.53238940700538, -33.38237489870721], [-70.53389650190796, -33.38175333462501], [-70.5362570373698, -33.38454108793315], [-70.53728133745588, -33.38654464575792], [-70.53561753403362, -33.385779008800654], [-70.53382396804977, -33.38449883292678], [-70.53328972357325, -33.383873549973885], [-70.53389807905884, -33.383480147270575], [-70.53320171227863, -33.38377334281515], [-70.53238940700538, -33.38237489870721]]]}}, {"type": "Feature", "properties": {"cuadra_id": 18}, "geometry": {"type": "Polygon", "coordinates": [[[-70.53224146114732, -33.382463549552774], [-70.53264980711357, -33.38312415732575], [-70.53261125772995, -33.38322110452589], [-70.53247852640752, -33.38319380244915], [-70.53224730769048, -33.38345230607494], [-70.53232906102909, -33.383523649889916], [-70.53221442199343, -33.38354435966809], [-70.53140890158731, -33.3831877130453], [-70.53167926455997, -33.38286602157039], [-70.53224146114732, -33.382463549552774]]]}}, {"type": "Feature", "properties": {"cuadra_id": 19}, "geometry": {"type": "Polygon", "coordinates": [[[-70.54778640767915, -33.38228510441149], [-70.54845354366559, -33.383265607287534], [-70.54802622922344, -33.38348799806197], [-70.54736493034433, -33.382512243624554], [-70.54778640767915, -33.38228510441149]]]}}, {"type": "Feature", "properties": {"cuadra_id": 22}, "geometry": {"type": "Polygon", "coordinates": [[[-70.54723322132286, -33.38254282714754], [-70.54730957859461, -33.38263352235572], [-70.5472526034572, -33.382663174017665], [-70.54728846308035, -33.38273990355456], [-70.54738044356972, -33.382738756623915], [-70.54772927863182, -33.38327946638443], [-70.5466784140624, -33.38368327575918], [-70.54665735120207, -33.38314330165056], [-70.54655956329937, -33.38281651958734], [-70.54723322132286, -33.38254282714754]]]}}, {"type": "Feature", "properties": {"cuadra_id": 23}, "geometry": {"type": "Polygon", "coordinates": [[[-70.54068173944906, -33.38274492953959], [-70.54048045327939, -33.38437296377009], [-70.54006678707228, -33.38439256910642], [-70.5404594141272, -33.38448416651923], [-70.54030298743272, -33.38506975741334], [-70.53970011247263, -33.385120651366265], [-70.53905951332818, -33.38498871551027], [-70.5395284510086, -33.38386383547071], [-70.53976125118744, -33.38271776619589], [-70.54019832999529, -33.38272198915188], [-70.54020266727852, -33.38296793624815], [-70.54029614462168, -33.38272559861089], [-70.54068173944906, -33.38274492953959]]]}}, {"type": "Feature", "properties": {"cuadra_id": 24}, "geometry": {"type": "Polygon", "coordinates": [[[-70.5414010200522, -33.38277458549463], [-70.54122610046485, -33.38491841254758], [-70.54048077962995, -33.38504343261868], [-70.54082039124897, -33.38278179638767], [-70.5414010200522, -33.38277458549463]]]}}, {"type": "Feature", "properties": {"cuadra_id": 27}, "geometry": {"type": "Polygon", "coordinates": [[[-70.54215479376786, -33.382803808609644], [-70.54208690852354, -33.384820894149165], [-70.54139839843764, -33.38490662532187], [-70.54154550609059, -33.38281620260258], [-70.54215479376786, -33.382803808609644]]]}}, {"type": "Feature", "properties": {"cuadra_id": 31}, "geometry": {"type": "Polygon", "coordinates": [[[-70.53272032286931, -33.383538112012864], [-70.53277747304656, -33.38351811188817], [-70.53292187198237, -33.383554916609235], [-70.53328897002419, -33.38415814891188], [-70.53270773110268, -33.38380356299802], [-70.5326751782033, -33.38358690515239], [-70.53272032286931, -33.383538112012864]]]}}, {"type": "Feature", "properties": {"cuadra_id": 32}, "geometry": {"type": "Polygon", "coordinates": [[[-70.54780614988007, -33.38339909608958], [-70.54808540566067, -33.383906907794426], [-70.54668573238597, -33.38442118630334], [-70.54667514196483, -33.3838231992364], [-70.54780614988007, -33.38339909608958]]]}}, {"type": "Feature", "properties": {"cuadra_id": 36}, "geometry": {"type": "Polygon", "coordinates": [[[-70.52670498702102, -33.38481333135178], [-70.52806692454504, -33.384106798797575], [-70.53101409013674, -33.384938711681095], [-70.53278124383752, -33.386026312822786], [-70.5324136439739, -33.38605014728358], [-70.53258933126403, -33.38623127247235], [-70.5328513327132, -33.38608815320147], [-70.53324853311157, -33.3864401887029], [-70.53292278358697, -33.38655515505023], [-70.53330695516743, -33.38649252586649], [-70.53390885043677, -33.38703979516425], [-70.5333644641502, -33.38714781814491], [-70.53351174881935, -33.387348587112605], [-70.53297801953926, -33.387736242663465], [-70.53267895919487, -33.38675110903138], [-70.53240326257703, -33.38709698626088], [-70.5306573979276, -33.38558464481577], [-70.52837370745578, -33.384879613320614], [-70.52670498702102, -33.38481333135178]]]}}, {"type": "Feature", "properties": {"cuadra_id": 41}, "geometry": {"type": "Polygon", "coordinates": [[[-70.54388838096811, -33.3855654368047], [-70.54410729113792, -33.38461247505362], [-70.5452018879901, -33.38472908511814], [-70.54635622449398, -33.384647175851924], [-70.54646704899167, -33.38506061922203], [-70.54569299101321, -33.385186028659156], [-70.54475591253461, -33.38519769783907], [-70.54454023274373, -33.385682736823675], [-70.54388838096811, -33.3855654368047]]]}}, {"type": "Feature", "properties": {"cuadra_id": 44}, "geometry": {"type": "Polygon", "coordinates": [[[-70.5422155140816, -33.384939884464075], [-70.54286659247241, -33.3850137911247], [-70.54274948697508, -33.38554583691636], [-70.54237554785882, -33.38553601484481], [-70.54272759857395, -33.385608815113414], [-70.54263659577863, -33.38599100640951], [-70.5422213897012, -33.38592381440587], [-70.54262603484175, -33.386044196677524], [-70.54235587483957, -33.38702673422999], [-70.54160508932797, -33.38684312243632], [-70.5422155140816, -33.384939884464075]]]}}, {"type": "Feature", "properties": {"cuadra_id": 45}, "geometry": {"type": "Polygon", "coordinates": [[[-70.54201430119367, -33.384942385058636], [-70.54149517603324, -33.3868058995848], [-70.54082615716538, -33.38669362036524], [-70.54131429217172, -33.38502825867413], [-70.54201430119367, -33.384942385058636]]]}}, {"type": "Feature", "properties": {"cuadra_id": 47}, "geometry": {"type": "Polygon", "coordinates": [[[-70.54301023081918, -33.3850071815447], [-70.54384046527453, -33.385131914133595], [-70.54327947683548, -33.38722748631771], [-70.54249977211043, -33.38703459259795], [-70.54301023081918, -33.3850071815447]]]}}, {"type": "Feature", "properties": {"cuadra_id": 48}, "geometry": {"type": "Polygon", "coordinates": [[[-70.54115366204998, -33.38504954796455], [-70.54069865685815, -33.38663732100658], [-70.54004697233698, -33.38652964585444], [-70.54039684206245, -33.38517471036638], [-70.54115366204998, -33.38504954796455]]]}}, {"type": "Feature", "properties": {"cuadra_id": 49}, "geometry": {"type": "Polygon", "coordinates": [[[-70.53899788958786, -33.38508112720868], [-70.5402652964317, -33.385214931644505], [-70.54007066543817, -33.38591676153634], [-70.53957284976138, -33.38572999723731], [-70.5395037238337, -33.38604920892166], [-70.53961623856482, -33.38590793009643], [-70.54004345122084, -33.386003923116874], [-70.5399247115425, -33.38644433938595], [-70.539371783048, -33.386393317571084], [-70.53989166294521, -33.386526749792004], [-70.53967471028164, -33.38726744439263], [-70.53811446803125, -33.38683338126209], [-70.53899788958786, -33.38508112720868]]]}}, {"type": "Feature", "properties": {"cuadra_id": 65}, "geometry": {"type": "Polygon", "coordinates": [[[-70.54482635015889, -33.38527882115445], [-70.5452521140642, -33.385292814028446], [-70.54517279128515, -33.385684508648325], [-70.54513280440143, -33.38569947719794], [-70.54510602196781, -33.38581075213779], [-70.54513562018, -33.3858586189911], [-70.54466138786002, -33.385705346418455], [-70.5447413100862, -33.38534740941904], [-70.54482635015889, -33.38527882115445]]]}}, {"type": "Feature", "properties": {"cuadra_id": 68}, "geometry": {"type": "Polygon", "coordinates": [[[-70.54536709314594, -33.385291382144565], [-70.54583250225318, -33.385271114494024], [-70.54575574293071, -33.38580748372688], [-70.54566244867291, -33.38605946997515], [-70.54525728767533, -33.385910162861585], [-70.54529462922478, -33.38574569744657], [-70.54525936732013, -33.38570272470289], [-70.54536709314594, -33.385291382144565]]]}}, {"type": "Feature", "properties": {"cuadra_id": 80}, "geometry": {"type": "Polygon", "coordinates": [[[-70.54388348456153, -33.38561373314923], [-70.54453533669488, -33.38573103318285], [-70.54447564555937, -33.38625754218525], [-70.5453524520874, -33.3867386266948], [-70.54609701102763, -33.38754452982111], [-70.54568649028313, -33.38774258587984], [-70.5447866232394, -33.38693379034552], [-70.54366886969213, -33.38648464079622], [-70.54388348456153, -33.38561373314923]]]}}, {"type": "Feature", "properties": {"cuadra_id": 83}, "geometry": {"type": "Polygon", "coordinates": [[[-70.54463933021803, -33.38575867995331], [-70.54511948244419, -33.3859215259724], [-70.54504781710459, -33.38609606580505], [-70.54506617333917, -33.38615854327316], [-70.54497219417868, -33.38637194922938], [-70.54460144160245, -33.386217388022885], [-70.54455451121075, -33.38616491324408], [-70.54463933021803, -33.38575867995331]]]}}, {"type": "Feature", "properties": {"cuadra_id": 84}, "geometry": {"type": "Polygon", "coordinates": [[[-70.535551259411, -33.38593418254473], [-70.53661936840125, -33.38683261086879], [-70.53698966328942, -33.386635082806684], [-70.53786972073087, -33.386976297692264], [-70.53683379131678, -33.389540788652376], [-70.53452162846243, -33.388860343685224], [-70.53492388883014, -33.3885177198658], [-70.5350753709676, -33.38797560848179], [-70.53412182128972, -33.38705163292233], [-70.535551259411, -33.38593418254473]]]}}, {"type": "Feature", "properties": {"cuadra_id": 90}, "geometry": {"type": "Polygon", "coordinates": [[[-70.545246728352, -33.38596335330716], [-70.54564605522039, -33.38610790958169], [-70.54556340488297, -33.3863115277669], [-70.54557584180459, -33.38636443179917], [-70.54543165858288, -33.386665287126284], [-70.54506503184103, -33.38641902868832], [-70.54515257917124, -33.38616711443143], [-70.54519256626223, -33.38615214587047], [-70.54522552433801, -33.38606491171725], [-70.54520150434273, -33.38600732834342], [-70.545246728352, -33.38596335330716]]]}}, {"type": "Feature", "properties": {"cuadra_id": 107}, "geometry": {"type": "Polygon", "coordinates": [[[-70.52854604666736, -33.38651267602543], [-70.52867386867119, -33.38691628001989], [-70.52851499502135, -33.387366827793215], [-70.52787970969703, -33.387538652746485], [-70.52735084571424, -33.388205990790034], [-70.52642235892124, -33.38805341530435], [-70.5273609632753, -33.38681185863282], [-70.52784567128907, -33.386579184289936], [-70.52854604666736, -33.38651267602543]]]}}, {"type": "Feature", "properties": {"cuadra_id": 113}, "geometry": {"type": "Polygon", "coordinates": [[[-70.53794703902881, -33.386468866983265], [-70.53810903175504, -33.386524741656324], [-70.53812086963183, -33.38654388910555], [-70.53800988050143, -33.386771971545976], [-70.53792990309438, -33.386801904108864], [-70.53776199103612, -33.38673645547404], [-70.53767972078099, -33.38663618051918], [-70.53772562836575, -33.386630788069475], [-70.53774338508201, -33.38665950930022], [-70.53786369079369, -33.38663390059711], [-70.53794703902881, -33.386468866983265]]]}}, {"type": "Feature", "properties": {"cuadra_id": 153}, "geometry": {"type": "Polygon", "coordinates": [[[-70.5399858589115, -33.38665099296018], [-70.54141673213029, -33.386922639112456], [-70.54125025698615, -33.38759035601649], [-70.53984228454812, -33.387313600404994], [-70.5399858589115, -33.38665099296018]]]}}, {"type": "Feature", "properties": {"cuadra_id": 166}, "geometry": {"type": "Polygon", "coordinates": [[[-70.54156156565384, -33.38698354592103], [-70.54326384890926, -33.38731932797981], [-70.54299862943228, -33.38793039256341], [-70.54310990830142, -33.388044773720516], [-70.5413834230371, -33.38764176084739], [-70.54156156565384, -33.38698354592103]]]}}, {"type": "Feature", "properties": {"cuadra_id": 169}, "geometry": {"type": "Polygon", "coordinates": [[[-70.53803222399809, -33.387061107398715], [-70.53962568926569, -33.387422406090444], [-70.53944549070252, -33.38796487888186], [-70.5382941890395, -33.38756915593406], [-70.53818775901853, -33.387729652349094], [-70.53941802024525, -33.38803757286425], [-70.53927466309612, -33.38838664654328], [-70.53769149072377, -33.38795768645406], [-70.53803222399809, -33.387061107398715]]]}}, {"type": "Feature", "properties": {"cuadra_id": 172}, "geometry": {"type": "Polygon", "coordinates": [[[-70.5340140285696, -33.38713496592815], [-70.53496673036074, -33.38801071731172], [-70.5348809318544, -33.38836389770042], [-70.5343882947783, -33.388799286434256], [-70.53373794491547, -33.38844073722372], [-70.53310695619945, -33.38787453261698], [-70.5335773605785, -33.387482835628205], [-70.53433661044794, -33.38814874645966], [-70.53442115316946, -33.388051230038684], [-70.53366807617168, -33.38740936116673], [-70.5340140285696, -33.38713496592815]]]}}, {"type": "Feature", "properties": {"cuadra_id": 173}, "geometry": {"type": "Polygon", "coordinates": [[[-70.52847111222964, -33.387487957222184], [-70.52853704530027, -33.38796950049305], [-70.52910373821636, -33.38913464177798], [-70.52868005857039, -33.38956915849801], [-70.52804332302739, -33.389659001942526], [-70.5278949716219, -33.38873952997587], [-70.52748975433656, -33.38825733996944], [-70.52797321500691, -33.38762432534467], [-70.52847111222964, -33.387487957222184]]]}}, {"type": "Feature", "properties": {"cuadra_id": 184}, "geometry": {"type": "Polygon", "coordinates": [[[-70.53975472072685, -33.38756551134226], [-70.54078010575876, -33.387668548087376], [-70.54015507197401, -33.38939831282951], [-70.53972741725002, -33.389278208283415], [-70.53995641665114, -33.38889430645757], [-70.5398344927109, -33.38882828997674], [-70.53962333584273, -33.3892457349976], [-70.5391317610298, -33.38908783314008], [-70.53975472072685, -33.38756551134226]]]}}, {"type": "Feature", "properties": {"cuadra_id": 199}, "geometry": {"type": "Polygon", "coordinates": [[[-70.53761828030802, -33.388045417524616], [-70.53923053990515, -33.38849331187708], [-70.53909867973258, -33.38884224273186], [-70.53793578447642, -33.388441836930596], [-70.53782918292056, -33.38859268807972], [-70.53905396110859, -33.38891515057863], [-70.53892209965402, -33.38926408126129], [-70.5373213254952, -33.38881604085508], [-70.53761828030802, -33.388045417524616]]]}}, {"type": "Feature", "properties": {"cuadra_id": 201}, "geometry": {"type": "Polygon", "coordinates": [[[-70.52742879080832, -33.388388326421826], [-70.52781202401759, -33.38892866995801], [-70.528083031126, -33.39061357646944], [-70.52782936255099, -33.391234115037165], [-70.5272599064529, -33.39155465672084], [-70.52725713575352, -33.391067511960905], [-70.52674405246367, -33.39000782094576], [-70.526708560095, -33.38962237328537], [-70.52683354153004, -33.38920600970166], [-70.52742879080832, -33.388388326421826]]]}}, {"type": "Feature", "properties": {"cuadra_id": 208}, "geometry": {"type": "Polygon", "coordinates": [[[-70.53727136557602, -33.38891795429637], [-70.53776817599513, -33.38904685744581], [-70.53756632454379, -33.3896667726894], [-70.53786650731199, -33.38907940357244], [-70.53833465825006, -33.38921348317062], [-70.53815580761172, -33.38983311413245], [-70.53842698581468, -33.38923163264549], [-70.53887789063451, -33.389365923990184], [-70.53858609748421, -33.39010272126546], [-70.53701303694989, -33.38959645095695], [-70.53727136557602, -33.38891795429637]]]}}, {"type": "Feature", "properties": {"cuadra_id": 209}, "geometry": {"type": "Polygon", "coordinates": [[[-70.53442550191379, -33.38895317987556], [-70.5350390738057, -33.38918194455681], [-70.53435506596168, -33.39083523453125], [-70.53373057824554, -33.39064036644724], [-70.53442550191379, -33.38895317987556]]]}}, {"type": "Feature", "properties": {"cuadra_id": 212}, "geometry": {"type": "Polygon", "coordinates": [[[-70.53529872223238, -33.38923179110905], [-70.53591736884253, -33.389421900199586], [-70.53521629764086, -33.39108505294116], [-70.53460888489896, -33.39088033098364], [-70.53529872223238, -33.38923179110905]]]}}, {"type": "Feature", "properties": {"cuadra_id": 214}, "geometry": {"type": "Polygon", "coordinates": [[[-70.53908780735026, -33.38920414340591], [-70.5395902860049, -33.38932814532603], [-70.53941144415147, -33.38994777783841], [-70.53969436750053, -33.389360618636694], [-70.54013403145495, -33.389509515483184], [-70.53971384169772, -33.39046496832273], [-70.53871317673898, -33.39013491021017], [-70.53908780735026, -33.38920414340591]]]}}, {"type": "Feature", "properties": {"cuadra_id": 215}, "geometry": {"type": "Polygon", "coordinates": [[[-70.53604436138644, -33.389449269441876], [-70.53679575336072, -33.38966667197112], [-70.53611203029655, -33.39133443814873], [-70.53536045572326, -33.391107386902966], [-70.53604436138644, -33.389449269441876]]]}}, {"type": "Feature", "properties": {"cuadra_id": 222}, "geometry": {"type": "Polygon", "coordinates": [[[-70.5416657074608, -33.39092790935152], [-70.54205717323048, -33.39095198597692], [-70.54229280937973, -33.390293055748394], [-70.54204346056757, -33.390175566394895], [-70.54215670005121, -33.38974968741799], [-70.54454107035426, -33.38995638296094], [-70.54445820960478, -33.39047353300966], [-70.54459061406457, -33.390481531907675], [-70.54422381833035, -33.39087680406328], [-70.54375663700858, -33.391123794513504], [-70.54268836673023, -33.39119978733082], [-70.5416657074608, -33.39092790935152]]]}}, {"type": "Feature", "properties": {"cuadra_id": 229}, "geometry": {"type": "Polygon", "coordinates": [[[-70.53812015015242, -33.390094027554035], [-70.53883147727268, -33.39032156129069], [-70.53865463823138, -33.390728931997096], [-70.53793189447815, -33.39050636235897], [-70.53812015015242, -33.390094027554035]]]}}, {"type": "Feature", "properties": {"cuadra_id": 230}, "geometry": {"type": "Polygon", "coordinates": [[[-70.5457848743804, -33.3900518350945], [-70.54676438508683, -33.39016021675496], [-70.54684976978828, -33.3901109169508], [-70.54699512488568, -33.39020075194985], [-70.54736205272451, -33.390138294145984], [-70.54732176125904, -33.39078515039608], [-70.54561791568311, -33.3906906219044], [-70.5457848743804, -33.3900518350945]]]}}, {"type": "Feature", "properties": {"cuadra_id": 242}, "geometry": {"type": "Polygon", "coordinates": [[[-70.53893572970986, -33.39036368018537], [-70.53998797189517, -33.39068344920869], [-70.53986271170403, -33.3910805342699], [-70.538793047108, -33.39075133325864], [-70.53876928486265, -33.390708216064155], [-70.53893572970986, -33.39036368018537]]]}}, {"type": "Feature", "properties": {"cuadra_id": 255}, "geometry": {"type": "Polygon", "coordinates": [[[-70.53788150968602, -33.39058416357008], [-70.53861017327556, -33.390816307169224], [-70.53846638386777, -33.391141267539375], [-70.53773771787837, -33.390909123174055], [-70.53788150968602, -33.39058416357008]]]}}, {"type": "Feature", "properties": {"cuadra_id": 262}, "geometry": {"type": "Polygon", "coordinates": [[[-70.54529222275987, -33.3911336204937], [-70.54556753776951, -33.39076842604137], [-70.54730716268098, -33.390934862048155], [-70.5472228648798, -33.39137003144025], [-70.54559332257796, -33.39125045853834], [-70.54529222275987, -33.3911336204937]]]}}, {"type": "Feature", "properties": {"cuadra_id": 269}, "geometry": {"type": "Polygon", "coordinates": [[[-70.53769883139124, -33.390986781808884], [-70.53842174858033, -33.391218997670606], [-70.53828379221152, -33.39154870905039], [-70.53755529307072, -33.39132620869368], [-70.53769883139124, -33.390986781808884]]]}}, {"type": "Feature", "properties": {"cuadra_id": 272}, "geometry": {"type": "Polygon", "coordinates": [[[-70.54119579419384, -33.391020570912154], [-70.54182545302251, -33.39118157202884], [-70.54169951939828, -33.39154007884021], [-70.54105226958653, -33.39136000145329], [-70.54119579419384, -33.391020570912154]]]}}]}